start=new Date('2022-10-22T00:00:00.000Z').valueOf();
sats=[{"LAUNCH_DATE":"2022-08-10","COUNTRY_CODE":"US","OBJECT_ID":"2022-097AV","SITE":"AFETR","ECCENTRICITY":"0.00010890","ELEMENT_SET_NO":"999","NORAD_CAT_ID":"53431","INCLINATION":"53.2167","REV_AT_EPOCH":"130","CENTER_NAME":"EARTH","TLE_LINE2":"2 53431  53.2167 249.4211 0001089  82.0692 280.7085 15.46810191  1300","MEAN_MOTION_DOT":"-0.01168427","MEAN_MOTION":"15.46810191","PERIAPSIS":"425.325","SEMIMAJOR_AXIS":"6804.201","TIME_SYSTEM":"UTC","MEAN_ANOMALY":"280.7085","TLE_LINE1":"1 53431U 22097AV  22294.91667824 -.01168427  00000-0 -25111-1 0  9990","BSTAR":"-0.02511100000000","ARG_OF_PERICENTER":"82.0692","OBJECT_NAME":"STARLINK-4548","DECAY_DATE":null,"APOAPSIS":"426.807","EPHEMERIS_TYPE":"0","RCS_SIZE":"LARGE","MEAN_ELEMENT_THEORY":"SGP4","PERIOD":"93.095","OBJECT_TYPE":"PAYLOAD","RA_OF_ASC_NODE":"249.4211","GP_ID":"215846352","REF_FRAME":"TEME","CLASSIFICATION_TYPE":"U","EPOCH":"2022-10-21T22:00:00.999936","MEAN_MOTION_DDOT":"0.0000000000000","FILE":"3628413"},{"REV_AT_EPOCH":"130","TLE_LINE2":"2 53432  53.2167 249.3920 0000990  80.1611 297.4048 15.49646341  1308","CENTER_NAME":"EARTH","MEAN_MOTION_DOT":"-0.01018655","TIME_SYSTEM":"UTC","PERIAPSIS":"417.089","SEMIMAJOR_AXIS":"6795.897","MEAN_MOTION":"15.49646341","OBJECT_ID":"2022-097AW","LAUNCH_DATE":"2022-08-10","COUNTRY_CODE":"US","SITE":"AFETR","ECCENTRICITY":"0.00009900","NORAD_CAT_ID":"53432","ELEMENT_SET_NO":"999","INCLINATION":"53.2167","GP_ID":"215845445","OBJECT_TYPE":"PAYLOAD","RA_OF_ASC_NODE":"249.3920","REF_FRAME":"TEME","EPOCH":"2022-10-21T22:00:00.999936","CLASSIFICATION_TYPE":"U","MEAN_MOTION_DDOT":"0.0000000000000","FILE":"3628413","BSTAR":"-0.01986100000000","TLE_LINE1":"1 53432U 22097AW  22294.91667824 -.01018655  00000-0 -19861-1 0  9993","MEAN_ANOMALY":"297.4048","ARG_OF_PERICENTER":"80.1611","OBJECT_NAME":"STARLINK-4557","RCS_SIZE":"LARGE","EPHEMERIS_TYPE":"0","DECAY_DATE":null,"APOAPSIS":"418.435","PERIOD":"92.924","MEAN_ELEMENT_THEORY":"SGP4"},{"PERIOD":"93.035","MEAN_ELEMENT_THEORY":"SGP4","EPHEMERIS_TYPE":"0","RCS_SIZE":"LARGE","APOAPSIS":"423.917","DECAY_DATE":null,"OBJECT_NAME":"STARLINK-4549","ARG_OF_PERICENTER":"78.0225","BSTAR":"-0.02405200000000","MEAN_ANOMALY":"293.6853","TLE_LINE1":"1 53433U 22097AX  22294.91667824 -.01159248  00000-0 -24052-1 0  9996","FILE":"3628413","MEAN_MOTION_DDOT":"0.0000000000000","EPOCH":"2022-10-21T22:00:00.999936","CLASSIFICATION_TYPE":"U","REF_FRAME":"TEME","GP_ID":"215846424","RA_OF_ASC_NODE":"249.4032","OBJECT_TYPE":"PAYLOAD","INCLINATION":"53.2167","ELEMENT_SET_NO":"999","NORAD_CAT_ID":"53433","SITE":"AFETR","ECCENTRICITY":"0.00010900","OBJECT_ID":"2022-097AX","COUNTRY_CODE":"US","LAUNCH_DATE":"2022-08-10","TIME_SYSTEM":"UTC","MEAN_MOTION":"15.47796363","PERIAPSIS":"422.435","SEMIMAJOR_AXIS":"6801.311","MEAN_MOTION_DOT":"-0.01159248","TLE_LINE2":"2 53433  53.2167 249.4032 0001090  78.0225 293.6853 15.47796363  1303","CENTER_NAME":"EARTH","REV_AT_EPOCH":"130"},{"MEAN_ANOMALY":"302.5661","TLE_LINE1":"1 53434U 22097AY  22294.91667824 -.00539263  00000-0 -10266-1 0  9997","BSTAR":"-0.01026600000000","OBJECT_NAME":"STARLINK-4498","ARG_OF_PERICENTER":"76.4706","APOAPSIS":"418.665","DECAY_DATE":null,"EPHEMERIS_TYPE":"0","RCS_SIZE":"LARGE","MEAN_ELEMENT_THEORY":"SGP4","PERIOD":"92.927","RA_OF_ASC_NODE":"249.3889","OBJECT_TYPE":"PAYLOAD","GP_ID":"215845608","REF_FRAME":"TEME","MEAN_MOTION_DDOT":"0.0000000000000","EPOCH":"2022-10-21T22:00:00.999936","CLASSIFICATION_TYPE":"U","FILE":"3628413","COUNTRY_CODE":"US","LAUNCH_DATE":"2022-08-10","OBJECT_ID":"2022-097AY","ELEMENT_SET_NO":"999","NORAD_CAT_ID":"53434","ECCENTRICITY":"0.00011480","SITE":"AFETR","INCLINATION":"53.2159","REV_AT_EPOCH":"130","CENTER_NAME":"EARTH","TLE_LINE2":"2 53434  53.2159 249.3889 0001148  76.4706 302.5661 15.49604412  1306","MEAN_MOTION_DOT":"-0.00539263","PERIAPSIS":"417.104","MEAN_MOTION":"15.49604412","SEMIMAJOR_AXIS":"6796.019","TIME_SYSTEM":"UTC"},{"GP_ID":"215846587","RA_OF_ASC_NODE":"249.3942","OBJECT_TYPE":"PAYLOAD","REF_FRAME":"TEME","MEAN_MOTION_DDOT":"0.0000000000000","EPOCH":"2022-10-21T22:00:00.999936","CLASSIFICATION_TYPE":"U","FILE":"3628413","BSTAR":"-0.02122400000000","TLE_LINE1":"1 53435U 22097AZ  22294.91667824 -.01081422  00000-0 -21224-1 0  9994","MEAN_ANOMALY":"311.8328","OBJECT_NAME":"STARLINK-4542","ARG_OF_PERICENTER":"64.4143","EPHEMERIS_TYPE":"0","RCS_SIZE":"LARGE","APOAPSIS":"418.515","DECAY_DATE":null,"PERIOD":"92.926","MEAN_ELEMENT_THEORY":"SGP4","REV_AT_EPOCH":"130","TLE_LINE2":"2 53435  53.2167 249.3942 0001027  64.4143 311.8328 15.49627389  1305","CENTER_NAME":"EARTH","MEAN_MOTION_DOT":"-0.01081422","TIME_SYSTEM":"UTC","PERIAPSIS":"417.119","SEMIMAJOR_AXIS":"6795.952","MEAN_MOTION":"15.49627389","OBJECT_ID":"2022-097AZ","COUNTRY_CODE":"US","LAUNCH_DATE":"2022-08-10","NORAD_CAT_ID":"53435","ELEMENT_SET_NO":"999","SITE":"AFETR","ECCENTRICITY":"0.00010270","INCLINATION":"53.2167"},{"CENTER_NAME":"EARTH","TLE_LINE2":"2 53436  53.2158 249.3871 0001090  90.7068 289.5311 15.49920004  1308","REV_AT_EPOCH":"130","PERIAPSIS":"416.221","SEMIMAJOR_AXIS":"6795.097","MEAN_MOTION":"15.49920004","TIME_SYSTEM":"UTC","MEAN_MOTION_DOT":"-0.00637540","LAUNCH_DATE":"2022-08-10","COUNTRY_CODE":"US","OBJECT_ID":"2022-097BA","INCLINATION":"53.2158","SITE":"AFETR","ECCENTRICITY":"0.00010900","NORAD_CAT_ID":"53436","ELEMENT_SET_NO":"999","REF_FRAME":"TEME","RA_OF_ASC_NODE":"249.3871","OBJECT_TYPE":"PAYLOAD","GP_ID":"215845863","FILE":"3628413","CLASSIFICATION_TYPE":"U","EPOCH":"2022-10-21T22:00:00.999936","MEAN_MOTION_DDOT":"0.0000000000000","OBJECT_NAME":"STARLINK-4527","ARG_OF_PERICENTER":"90.7068","MEAN_ANOMALY":"289.5311","TLE_LINE1":"1 53436U 22097BA  22294.91667824 -.00637540  00000-0 -12154-1 0  9994","BSTAR":"-0.01215400000000","MEAN_ELEMENT_THEORY":"SGP4","PERIOD":"92.908","APOAPSIS":"417.703","DECAY_DATE":null,"EPHEMERIS_TYPE":"0","RCS_SIZE":"LARGE"},{"APOAPSIS":"417.342","DECAY_DATE":null,"RCS_SIZE":"LARGE","EPHEMERIS_TYPE":"0","MEAN_ELEMENT_THEORY":"SGP4","PERIOD":"92.903","MEAN_ANOMALY":"287.9057","TLE_LINE1":"1 53438U 22097BC  22294.91667824 -.00581107  00000-0 -10966-1 0  9992","BSTAR":"-0.01096600000000","OBJECT_NAME":"STARLINK-4526","ARG_OF_PERICENTER":"93.6484","MEAN_MOTION_DDOT":"0.0000000000000","CLASSIFICATION_TYPE":"U","EPOCH":"2022-10-21T22:00:00.999936","FILE":"3628413","RA_OF_ASC_NODE":"249.3846","OBJECT_TYPE":"PAYLOAD","GP_ID":"215846190","REF_FRAME":"TEME","NORAD_CAT_ID":"53438","ELEMENT_SET_NO":"999","SITE":"AFETR","ECCENTRICITY":"0.00009180","INCLINATION":"53.2155","COUNTRY_CODE":"US","LAUNCH_DATE":"2022-08-10","OBJECT_ID":"2022-097BC","MEAN_MOTION_DOT":"-0.00581107","SEMIMAJOR_AXIS":"6794.853","PERIAPSIS":"416.094","MEAN_MOTION":"15.50003441","TIME_SYSTEM":"UTC","REV_AT_EPOCH":"130","CENTER_NAME":"EARTH","TLE_LINE2":"2 53438  53.2155 249.3846 0000918  93.6484 287.9057 15.50003441  1309"},{"GP_ID":"215846026","OBJECT_TYPE":"PAYLOAD","RA_OF_ASC_NODE":"249.3833","REF_FRAME":"TEME","MEAN_MOTION_DDOT":"0.0000000000000","EPOCH":"2022-10-21T22:00:00.999936","CLASSIFICATION_TYPE":"U","FILE":"3628413","BSTAR":"-0.00930080000000","MEAN_ANOMALY":"285.3996","TLE_LINE1":"1 53439U 22097BD  22294.91667824 -.00499885  00000-0 -93008-2 0  9993","OBJECT_NAME":"STARLINK-4519","ARG_OF_PERICENTER":"97.3935","EPHEMERIS_TYPE":"0","RCS_SIZE":"LARGE","APOAPSIS":"417.110","DECAY_DATE":null,"PERIOD":"92.897","MEAN_ELEMENT_THEORY":"SGP4","REV_AT_EPOCH":"130","TLE_LINE2":"2 53439  53.2148 249.3833 0001026  97.3935 285.3996 15.50107872  1308","CENTER_NAME":"EARTH","MEAN_MOTION_DOT":"-0.00499885","TIME_SYSTEM":"UTC","MEAN_MOTION":"15.50107872","PERIAPSIS":"415.716","SEMIMAJOR_AXIS":"6794.548","OBJECT_ID":"2022-097BD","COUNTRY_CODE":"US","LAUNCH_DATE":"2022-08-10","ELEMENT_SET_NO":"999","NORAD_CAT_ID":"53439","SITE":"AFETR","ECCENTRICITY":"0.00010260","INCLINATION":"53.2148"},{"LAUNCH_DATE":"2022-08-12","COUNTRY_CODE":"US","OBJECT_ID":"2022-099A","SITE":"AFWTR","ECCENTRICITY":"0.00019220","NORAD_CAT_ID":"53465","ELEMENT_SET_NO":"999","INCLINATION":"97.6572","REV_AT_EPOCH":"130","CENTER_NAME":"EARTH","TLE_LINE2":"2 53465  97.6572  54.4095 0001922  46.8483 263.8373 15.01302090  1302","MEAN_MOTION_DOT":"-0.00058929","MEAN_MOTION":"15.01302090","PERIAPSIS":"561.548","SEMIMAJOR_AXIS":"6941.017","TIME_SYSTEM":"UTC","MEAN_ANOMALY":"263.8373","TLE_LINE1":"1 53465U 22099A   22294.91667824 -.00058929  00000-0 -46165-2 0  9996","BSTAR":"-0.00461650000000","OBJECT_NAME":"STARLINK-4415","ARG_OF_PERICENTER":"46.8483","APOAPSIS":"564.216","DECAY_DATE":null,"EPHEMERIS_TYPE":"0","RCS_SIZE":"LARGE","MEAN_ELEMENT_THEORY":"SGP4","PERIOD":"95.917","OBJECT_TYPE":"PAYLOAD","RA_OF_ASC_NODE":"54.4095","GP_ID":"215845866","REF_FRAME":"TEME","EPOCH":"2022-10-21T22:00:00.999936","CLASSIFICATION_TYPE":"U","MEAN_MOTION_DDOT":"0.0000000000000","FILE":"3628413"},{"MEAN_MOTION_DOT":"-0.00028526","MEAN_MOTION":"15.01281923","PERIAPSIS":"561.631","SEMIMAJOR_AXIS":"6941.079","TIME_SYSTEM":"UTC","REV_AT_EPOCH":"130","CENTER_NAME":"EARTH","TLE_LINE2":"2 53466  97.6591  54.4009 0001892  38.5050 282.2048 15.01281923  1308","ELEMENT_SET_NO":"999","NORAD_CAT_ID":"53466","SITE":"AFWTR","ECCENTRICITY":"0.00018920","INCLINATION":"97.6591","COUNTRY_CODE":"US","LAUNCH_DATE":"2022-08-12","OBJECT_ID":"2022-099B","MEAN_MOTION_DDOT":"0.0000000000000","CLASSIFICATION_TYPE":"U","EPOCH":"2022-10-21T22:00:00.999936","FILE":"3628413","OBJECT_TYPE":"PAYLOAD","RA_OF_ASC_NODE":"54.4009","GP_ID":"215846193","REF_FRAME":"TEME","APOAPSIS":"564.258","DECAY_DATE":null,"RCS_SIZE":"LARGE","EPHEMERIS_TYPE":"0","MEAN_ELEMENT_THEORY":"SGP4","PERIOD":"95.918","TLE_LINE1":"1 53466U 22099B   22294.91667824 -.00028526  00000-0 -22240-2 0  9995","MEAN_ANOMALY":"282.2048","BSTAR":"-0.00222400000000","OBJECT_NAME":"STARLINK-4398","ARG_OF_PERICENTER":"38.5050"}];
